{"type": "FeatureCollection", "features": [ {"type": "Feature", "properties": {"norad_id": 44622, "name": "GAOFEN-10R", "group": "resource", "lat": 27.38762001701239, "lon": 109.03693224392863, "alt_km": 619.0943836953948, "timestamp": "2025-12-03T08:58:45.656894+00:00", "meta": {"OBJECT_NAME": "GAOFEN-10R", "OBJECT_ID": "2019-066A", "EPOCH": "2025-12-03T05:03:24.037632", "MEAN_MOTION": 14.82735938, "ECCENTRICITY": 0.0008266, "INCLINATION": 98.0261, "RA_OF_ASC_NODE": 284.6808, "ARG_OF_PERICENTER": 67.8537, "MEAN_ANOMALY": 292.3553, "EPHEMERIS_TYPE": 0, "CLASSIFICATION_TYPE": "U", "NORAD_CAT_ID": 44622, "ELEMENT_SET_NO": 999, "REV_AT_EPOCH": 33333, "BSTAR": 0.00031826, "MEAN_MOTION_DOT": 2.517e-05, "MEAN_MOTION_DDOT": 0}, "tle": {"line1": "1 44622U 19066A   25337.21069488  .00002517  00000+0  31826-3 0  9995", "line2": "2 44622  98.0261 284.6808 0008266  67.8537 292.3553 14.82735938333334"}}, "geometry": {"type": "Point", "coordinates": [109.03693224392863, 27.38762001701239]}}, {"type": "Feature", "properties": {"norad_id": 44804, "name": "CARTOSAT-3", "group": "resource", "lat": 13.15946451582959, "lon": -141.16899014102532, "alt_km": 503.2677983209951, "timestamp": "2025-12-03T08:58:45.656904+00:00", "meta": {"OBJECT_NAME": "CARTOSAT-3", "OBJECT_ID": "2019-081A", "EPOCH": "2025-12-03T05:05:16.647072", "MEAN_MOTION": 15.19232221, "ECCENTRICITY": 0.0013771, "INCLINATION": 97.4604, "RA_OF_ASC_NODE": 36.9152, "ARG_OF_PERICENTER": 117.2009, "MEAN_ANOMALY": 243.0631, "EPHEMERIS_TYPE": 0, "CLASSIFICATION_TYPE": "U", "NORAD_CAT_ID": 44804, "ELEMENT_SET_NO": 999, "REV_AT_EPOCH": 33371, "BSTAR": 0.00014294, "MEAN_MOTION_DOT": 2.949e-05, "MEAN_MOTION_DDOT": 0}, "tle": {"line1": "1 44804U 19081A   25337.21199823  .00002949  00000+0  14294-3 0  9990", "line2": "2 44804  97.4604  36.9152 0013771 117.2009 243.0631 15.19232221333711"}}, "geometry": {"type": "Point", "coordinates": [-141.16899014102532, 13.15946451582959]}}, {"type": "Feature", "properties": {"norad_id": 44819, "name": "GAOFEN-12 01", "group": "resource", "lat": 48.69987943871479, "lon": 172.89248009093777, "alt_km": 623.8163719290305, "timestamp": "2025-12-03T08:58:45.656915+00:00", "meta": {"OBJECT_NAME": "GAOFEN-12 01", "OBJECT_ID": "2019-082A", "EPOCH": "2025-12-03T05:08:51.188640", "MEAN_MOTION": 14.80638822, "ECCENTRICITY": 0.0001278, "INCLINATION": 97.8128, "RA_OF_ASC_NODE": 343.7455, "ARG_OF_PERICENTER": 298.9437, "MEAN_ANOMALY": 61.1647, "EPHEMERIS_TYPE": 0, "CLASSIFICATION_TYPE": "U", "NORAD_CAT_ID": 44819, "ELEMENT_SET_NO": 999, "REV_AT_EPOCH": 32509, "BSTAR": 0.00010188, "MEAN_MOTION_DOT": 7.32e-06, "MEAN_MOTION_DDOT": 0}, "tle": {"line1": "1 44819U 19082A   25337.21448135  .00000732  00000+0  10188-3 0  9996", "line2": "2 44819  97.8128 343.7455 0001278 298.9437  61.1647 14.80638822325090"}}, "geometry": {"type": "Point", "coordinates": [172.89248009093777, 48.69987943871479]}}, {"type": "Feature", "properties": {"norad_id": 44873, "name": "CSG-1", "group": "resource", "lat": -10.911045528710012, "lon": -22.690979650851368, "alt_km": 627.1117422864381, "timestamp": "2025-12-03T08:58:45.656925+00:00", "meta": {"OBJECT_NAME": "CSG-1", "OBJECT_ID": "2019-092A", "EPOCH": "2025-12-02T22:23:58.160256", "MEAN_MOTION": 14.82173594, "ECCENTRICITY": 0.0001377, "INCLINATION": 97.8806, "RA_OF_ASC_NODE": 158.405, "ARG_OF_PERICENTER": 83.3205, "MEAN_ANOMALY": 276.8165, "EPHEMERIS_TYPE": 0, "CLASSIFICATION_TYPE": "U", "NORAD_CAT_ID": 44873, "ELEMENT_SET_NO": 999, "REV_AT_EPOCH": 32240, "BSTAR": 0.00011625, "MEAN_MOTION_DOT": 8.74e-06, "MEAN_MOTION_DDOT": 0}, "tle": {"line1": "1 44873U 19092A   25336.93331204  .00000874  00000+0  11625-3 0  9997", "line2": "2 44873  97.8806 158.4050 0001377  83.3205 276.8165 14.82173594322408"}}, "geometry": {"type": "Point", "coordinates": [-22.690979650851368, -10.911045528710012]}}, {"type": "Feature", "properties": {"norad_id": 46277, "name": "NEMO-HD", "group": "resource", "lat": -16.573808425283303, "lon": -145.5698465097237, "alt_km": 452.0444157839929, "timestamp": "2025-12-03T08:58:45.656935+00:00", "meta": {"OBJECT_NAME": "NEMO-HD", "OBJECT_ID": "2020-061F", "EPOCH": "2025-12-03T03:27:00.735264", "MEAN_MOTION": 15.4001888, "ECCENTRICITY": 0.0002357, "INCLINATION": 97.2233, "RA_OF_ASC_NODE": 36.366, "ARG_OF_PERICENTER": 68.3281, "MEAN_ANOMALY": 291.8216, "EPHEMERIS_TYPE": 0, "CLASSIFICATION_TYPE": "U", "NORAD_CAT_ID": 46277, "ELEMENT_SET_NO": 999, "REV_AT_EPOCH": 29176, "BSTAR": 0.00034769, "MEAN_MOTION_DOT": 0.00013808, "MEAN_MOTION_DDOT": 0}, "tle": {"line1": "1 46277U 20061F   25337.14375851  .00013808  00000+0  34769-3 0  9990", "line2": "2 46277  97.2233  36.3660 0002357  68.3281 291.8216 15.40018880291762"}}, "geometry": {"type": "Point", "coordinates": [-145.5698465097237, -16.573808425283303]}}, {"type": "Feature", "properties": {"norad_id": 46984, "name": "SENTINEL-6A", "group": "resource", "lat": 55.69236796260144, "lon": -38.90664912905014, "alt_km": 1336.8678137113611, "timestamp": "2025-12-03T08:58:45.656945+00:00", "meta": {"OBJECT_NAME": "SENTINEL-6A", "OBJECT_ID": "2020-086A", "EPOCH": "2025-12-03T00:53:02.162112", "MEAN_MOTION": 12.80930029, "ECCENTRICITY": 0.000773, "INCLINATION": 66.0388, "RA_OF_ASC_NODE": 182.4612, "ARG_OF_PERICENTER": 269.1497, "MEAN_ANOMALY": 90.8633, "EPHEMERIS_TYPE": 0, "CLASSIFICATION_TYPE": "U", "NORAD_CAT_ID": 46984, "ELEMENT_SET_NO": 999, "REV_AT_EPOCH": 23520, "BSTAR": 0.00013407, "MEAN_MOTION_DOT": -3e-07, "MEAN_MOTION_DDOT": 0}, "tle": {"line1": "1 46984U 20086A   25337.03683058 -.00000030  00000+0  13407-3 0  9991", "line2": "2 46984  66.0388 182.4612 0007730 269.1497  90.8633 12.80930029235208"}}, "geometry": {"type": "Point", "coordinates": [-38.90664912905014, 55.69236796260144]}}, {"type": "Feature", "properties": {"norad_id": 48079, "name": "GAOFEN-12 02", "group": "resource", "lat": 38.273092141890594, "lon": 157.7844721769157, "alt_km": 622.315922939958, "timestamp": "2025-12-03T08:58:45.656955+00:00", "meta": {"OBJECT_NAME": "GAOFEN-12 02", "OBJECT_ID": "2021-026A", "EPOCH": "2025-12-03T05:06:00.758592", "MEAN_MOTION": 14.80656126, "ECCENTRICITY": 0.0003252, "INCLINATION": 97.9849, "RA_OF_ASC_NODE": 331.2652, "ARG_OF_PERICENTER": 120.1414, "MEAN_ANOMALY": 240.0121, "EPHEMERIS_TYPE": 0, "CLASSIFICATION_TYPE": "U", "NORAD_CAT_ID": 48079, "ELEMENT_SET_NO": 999, "REV_AT_EPOCH": 25276, "BSTAR": 0.00010268, "MEAN_MOTION_DOT": 7.36e-06, "MEAN_MOTION_DDOT": 0}, "tle": {"line1": "1 48079U 21026A   25337.21250878  .00000736  00000+0  10268-3 0  9997", "line2": "2 48079  97.9849 331.2652 0003252 120.1414 240.0121 14.80656126252764"}}, "geometry": {"type": "Point", "coordinates": [157.7844721769157, 38.273092141890594]}}, {"type": "Feature", "properties": {"norad_id": 48268, "name": "PLEIADES NEO 3", "group": "resource", "lat": 5.473478077538821, "lon": -129.2888369891858, "alt_km": 626.2089272982712, "timestamp": "2025-12-03T08:58:45.656968+00:00", "meta": {"OBJECT_NAME": "PLEIADES NEO 3", "OBJECT_ID": "2021-034A", "EPOCH": "2025-12-03T04:57:12.528000", "MEAN_MOTION": 14.81667901, "ECCENTRICITY": 0.0001265, "INCLINATION": 97.8947, "RA_OF_ASC_NODE": 49.784, "ARG_OF_PERICENTER": 93.7966, "MEAN_ANOMALY": 266.3391, "EPHEMERIS_TYPE": 0, "CLASSIFICATION_TYPE": "U", "NORAD_CAT_ID": 48268, "ELEMENT_SET_NO": 999, "REV_AT_EPOCH": 24863, "BSTAR": -1.3823e-06, "MEAN_MOTION_DOT": -6.3e-07, "MEAN_MOTION_DDOT": 0}, "tle": {"line1": "1 48268U 21034A   25337.20639500 -.00000063  00000+0 -13823-5 0  9995", "line2": "2 48268  97.8947  49.7840 0001265  93.7966 266.3391 14.81667901248636"}}, "geometry": {"type": "Point", "coordinates": [-129.2888369891858, 5.473478077538821]}}, {"type": "Feature", "properties": {"norad_id": 49070, "name": "PLEIADES NEO 4", "group": "resource", "lat": -5.683194574166373, "lon": 50.736558468264725, "alt_km": 627.9818751783496, "timestamp": "2025-12-03T08:58:45.656979+00:00", "meta": {"OBJECT_NAME": "PLEIADES NEO 4", "OBJECT_ID": "2021-073E", "EPOCH": "2025-12-03T04:08:34.217664", "MEAN_MOTION": 14.81671819, "ECCENTRICITY": 0.0001264, "INCLINATION": 97.8949, "RA_OF_ASC_NODE": 49.7467, "ARG_OF_PERICENTER": 97.8279, "MEAN_ANOMALY": 262.3077, "EPHEMERIS_TYPE": 0, "CLASSIFICATION_TYPE": "U", "NORAD_CAT_ID": 49070, "ELEMENT_SET_NO": 999, "REV_AT_EPOCH": 23234, "BSTAR": 9.8084e-07, "MEAN_MOTION_DOT": -4.4e-07, "MEAN_MOTION_DDOT": 0}, "tle": {"line1": "1 49070U 21073E   25337.17261826 -.00000044  00000+0  98084-6 0  9999", "line2": "2 49070  97.8949  49.7467 0001264  97.8279 262.3077 14.81671819232347"}}, "geometry": {"type": "Point", "coordinates": [50.736558468264725, -5.683194574166373]}}, {"type": "Feature", "properties": {"norad_id": 49260, "name": "LANDSAT 9", "group": "resource", "lat": 61.20871456117997, "lon": -119.14812164619136, "alt_km": 695.8544545686318, "timestamp": "2025-12-03T08:58:45.656989+00:00", "meta": {"OBJECT_NAME": "LANDSAT 9", "OBJECT_ID": "2021-088A", "EPOCH": "2025-12-03T03:29:50.017056", "MEAN_MOTION": 14.57113829, "ECCENTRICITY": 0.0001084, "INCLINATION": 98.2103, "RA_OF_ASC_NODE": 45.3951, "ARG_OF_PERICENTER": 92.8083, "MEAN_ANOMALY": 267.3239, "EPHEMERIS_TYPE": 0, "CLASSIFICATION_TYPE": "U", "NORAD_CAT_ID": 49260, "ELEMENT_SET_NO": 999, "REV_AT_EPOCH": 22245, "BSTAR": 0.00015032, "MEAN_MOTION_DOT": 6.32e-06, "MEAN_MOTION_DDOT": 0}, "tle": {"line1": "1 49260U 21088A   25337.14571779  .00000632  00000+0  15032-3 0  9995", "line2": "2 49260  98.2103  45.3951 0001084  92.8083 267.3239 14.57113829222454"}}, "geometry": {"type": "Point", "coordinates": [-119.14812164619136, 61.20871456117997]}}]}